NORAD_CAT_ID,OBJECT_NAME,OBJECT_TYPE,EPOCH,MEAN_MOTION,ECCENTRICITY,INCLINATION,RA_OF_ASC_NODE,ARG_OF_PERICENTER,MEAN_ANOMALY,BSTAR,MEAN_MOTION_DOT,MEAN_MOTION_DDOT,TLE_LINE0,TLE_LINE1,TLE_LINE2,SEMIMAJOR_AXIS,PERIOD,APOGEE,PERIGEE,DECAYED
52872.0,STARLINK-4213,PAYLOAD,2023-11-11 00:57:34,15.08868113,0.0001447,53.2165,228.3175,89.6625,270.4533,0.00096772,0.00015159,0.0,0 STARLINK-4213,1 52872U 22062AU  23315.03998015  .00015159  00000-0  96772-3 0  9990,2 52872  53.2165 228.3175 0001447  89.6625 270.4533 15.08868113 78288,6917.794,95.436,540.66,538.658,0.0
52872.0,STARLINK-4213,PAYLOAD,2023-11-11 04:08:20,15.08876065,0.0001438,53.2164,227.7223,90.0305,270.0852,0.0011075,0.00017399,0.0,0 STARLINK-4213,1 52872U 22062AU  23315.17245651  .00017399  00000-0  11075-2 0  9996,2 52872  53.2164 227.7223 0001438  90.0305 270.0852 15.08876065 77818,6917.77,95.435,540.63,538.64,0.0
52872.0,STARLINK-4213,PAYLOAD,2023-11-11 18:26:49,15.0884309,0.0001715,53.2173,225.0464,82.6689,277.4498,7.1285e-05,8.47e-06,0.0,0 STARLINK-4213,1 52872U 22062AU  23315.76862281  .00000847  00000-0  71285-4 0  9996,2 52872  53.2173 225.0464 0001715  82.6689 277.4498 15.08843090 78399,6917.871,95.437,540.922,538.55,0.0
52872.0,STARLINK-4213,PAYLOAD,2023-11-11 21:37:35,15.08835097,0.0001438,53.2172,224.452,73.4397,286.6753,-0.00010957,-2.031e-05,0.0,0 STARLINK-4213,1 52872U 22062AU  23315.90110446 -.00002031  00000-0 -10957-3 0  9998,2 52872  53.2172 224.4520 0001438  73.4397 286.6753 15.08835097 77922,6917.895,95.438,540.755,538.766,0.0
52872.0,STARLINK-4213,PAYLOAD,2023-11-12 08:45:17,15.08827146,0.0001621,53.2169,222.3703,80.6201,279.4975,0.00017036,2.423e-05,0.0,0 STARLINK-4213,1 52872U 22062AU  23316.36478431  .00002423  00000-0  17036-3 0  9998,2 52872  53.2169 222.3703 0001621  80.6201 279.4975 15.08827146 78480,6917.92,95.438,540.906,538.663,0.0
52872.0,STARLINK-4213,PAYLOAD,2023-11-12 21:28:22,15.0884911,0.0001569,53.2163,219.992,81.8361,278.2809,0.0015464,0.00024415,0.0,0 STARLINK-4213,1 52872U 22062AU  23316.89470891  .00024415  00000-0  15464-2 0  9995,2 52872  53.2163 219.9920 0001569  81.8361 278.2809 15.08849110 78071,6917.853,95.437,540.803,538.632,0.0
52872.0,STARLINK-4213,PAYLOAD,2023-11-13 03:49:54,15.08868197,0.0001464,53.2165,218.8031,80.9339,279.1819,0.0016175,0.00025568,0.0,0 STARLINK-4213,1 52872U 22062AU  23317.15966386  .00025568  00000-0  16175-2 0  9994,2 52872  53.2165 218.8031 0001464  80.9339 279.1819 15.08868197 78609,6917.794,95.436,540.672,538.646,0.0
52872.0,STARLINK-4213,PAYLOAD,2023-11-14 02:05:19,15.08851752,0.0002628,53.2163,214.6402,65.65,294.4766,0.0011699,0.00018386,0.0,0 STARLINK-4213,1 52872U 22062AU  23318.08703061  .00018386  00000-0  11699-2 0  9992,2 52872  53.2163 214.6402 0002628  65.6500 294.4766 15.08851752 78741,6917.844,95.437,541.527,537.891,0.0
52872.0,STARLINK-4213,PAYLOAD,2023-11-14 10:02:14,15.08843889,8.08e-05,53.2161,213.1532,86.3284,273.7801,0.00033821,5.1e-05,0.0,0 STARLINK-4213,1 52872U 22062AU  23318.41822270  .00005100  00000-0  33821-3 0  9995,2 52872  53.2161 213.1532 0000808  86.3284 273.7801 15.08843889 78791,6917.869,95.437,540.292,539.175,0.0
52872.0,STARLINK-4213,PAYLOAD,2023-11-15 03:31:30,15.08835826,0.0003409,53.2161,209.8847,83.2584,276.8796,0.0003204,4.814e-05,0.0,0 STARLINK-4213,1 52872U 22062AU  23319.14687788  .00004814  00000-0  32040-3 0  9992,2 52872  53.2161 209.8847 0003409  83.2584 276.8796 15.08835826 78903,6917.893,95.438,542.116,537.4,0.0
52872.0,STARLINK-4213,PAYLOAD,2023-11-16 01:46:53,15.08849584,0.0001502,53.2187,205.7185,83.8573,276.259,0.00053783,8.284e-05,0.0,0 STARLINK-4213,1 52872U 22062AU  23320.07422902  .00008284  00000-0  53783-3 0  9993,2 52872  53.2187 205.7185 0001502  83.8573 276.2590 15.08849584 79045,6917.851,95.437,540.755,538.677,0.0
52872.0,STARLINK-4213,PAYLOAD,2023-11-16 16:05:21,15.0883834,0.0001341,53.2179,203.044,82.9672,277.1472,0.00013186,1.811e-05,0.0,0 STARLINK-4213,1 52872U 22062AU  23320.67039256  .00001811  00000-0  13186-3 0  9997,2 52872  53.2179 203.0440 0001341  82.9672 277.1472 15.08838340 79139,6917.885,95.438,540.678,538.823,0.0
52872.0,STARLINK-4213,PAYLOAD,2023-11-17 01:37:40,15.08844305,0.0001518,53.2172,201.2594,88.5101,271.6065,0.00030608,4.587e-05,0.0,0 STARLINK-4213,1 52872U 22062AU  23321.06783185  .00004587  00000-0  30608-3 0  9999,2 52872  53.2172 201.2594 0001518  88.5101 271.6065 15.08844305 78704,6917.867,95.437,540.782,538.682,0.0
52872.0,STARLINK-4213,PAYLOAD,2023-11-17 22:17:41,15.08849698,0.0001471,53.2153,197.394,78.8695,281.2463,0.00015935,2.25e-05,0.0,0 STARLINK-4213,1 52872U 22062AU  23321.92894955  .00002250  00000-0  15935-3 0  9993,2 52872  53.2153 197.3940 0001471  78.8695 281.2463 15.08849698 78834,6917.851,95.437,540.733,538.698,0.0
52872.0,STARLINK-4213,PAYLOAD,2023-11-18 01:28:27,15.08842464,0.0001098,53.2156,196.7999,70.7878,289.3233,0.00018945,2.729e-05,0.0,0 STARLINK-4213,1 52872U 22062AU  23322.06143246  .00002729  00000-0  18945-3 0  9994,2 52872  53.2156 196.7999 0001098  70.7878 289.3233 15.08842464 79348,6917.873,95.437,540.497,538.978,0.0
52872.0,STARLINK-4213,PAYLOAD,2023-11-18 09:25:24,15.0882112,0.0001744,53.2179,195.3115,79.6157,280.5031,-0.0001774,-3.109e-05,0.0,0 STARLINK-4213,1 52872U 22062AU  23322.39264505 -.00003109  00000-0 -17740-3 0  9999,2 52872  53.2179 195.3115 0001744  79.6157 280.5031 15.08821120 79394,6917.938,95.439,541.01,538.597,0.0
52872.0,STARLINK-4213,PAYLOAD,2023-11-18 22:08:29,15.08823569,0.0001494,53.2148,192.9327,77.5743,282.5416,-1.2793e-05,-4.91e-06,0.0,0 STARLINK-4213,1 52872U 22062AU  23322.92256922 -.00000491  00000-0 -12793-4 0  9997,2 52872  53.2148 192.9327 0001494  77.5743 282.5416 15.08823569 78980,6917.931,95.439,540.829,538.762,0.0
52872.0,STARLINK-4213,PAYLOAD,2023-11-19 01:19:16,15.08831116,0.0001663,53.2142,192.3381,80.5256,279.5924,0.00014432,2.009e-05,0.0,0 STARLINK-4213,1 52872U 22062AU  23323.05504897  .00002009  00000-0  14432-3 0  9995,2 52872  53.2142 192.3381 0001663  80.5256 279.5924 15.08831116 79493,6917.908,95.438,540.923,538.622,0.0
52872.0,STARLINK-4213,PAYLOAD,2023-11-19 21:59:17,15.08850713,0.0001762,53.2148,188.4723,82.0688,278.0504,0.00079249,0.00012351,0.0,0 STARLINK-4213,1 52872U 22062AU  23323.91617023  .00012351  00000-0  79249-3 0  9994,2 52872  53.2148 188.4723 0001762  82.0688 278.0504 15.08850713 79134,6917.848,95.437,540.932,538.494,0.0
52872.0,STARLINK-4213,PAYLOAD,2023-11-20 01:10:03,15.08856396,0.0001781,53.2154,187.8774,81.8383,278.2811,0.00083647,0.00013055,0.0,0 STARLINK-4213,1 52872U 22062AU  23324.04864868  .00013055  00000-0  83647-3 0  9999,2 52872  53.2154 187.8774 0001781  81.8383 278.2811 15.08856396 79642,6917.83,95.437,540.927,538.463,0.0
52872.0,STARLINK-4213,PAYLOAD,2023-11-20 07:31:35,15.08862284,0.0001758,53.2152,186.6878,81.9359,278.1833,0.00081018,0.00012637,0.0,0 STARLINK-4213,1 52872U 22062AU  23324.31360528  .00012637  00000-0  81018-3 0  9998,2 52872  53.2152 186.6878 0001758  81.9359 278.1833 15.08862284 79196,6917.812,95.436,540.893,538.461,0.0
52872.0,STARLINK-4213,PAYLOAD,2023-11-20 21:50:02,15.0887347,0.0001827,53.2159,184.0114,83.2706,276.8494,0.00069993,0.00010879,0.0,0 STARLINK-4213,1 52872U 22062AU  23324.90975448  .00010879  00000-0  69993-3 0  9990,2 52872  53.2159 184.0114 0001827  83.2706 276.8494 15.08873470 79283,6917.778,95.435,540.907,538.379,0.0
52872.0,STARLINK-4213,PAYLOAD,2023-11-21 07:22:21,15.0885345,0.0002485,53.2159,182.2269,83.0201,277.1074,-8.9797e-05,-1.718e-05,0.0,0 STARLINK-4213,1 52872U 22062AU  23325.30719501 -.00001718  00000-0 -89797-4 0  9990,2 52872  53.2159 182.2269 0002485  83.0201 277.1074 15.08853450 79838,6917.839,95.437,541.423,537.985,0.0
52872.0,STARLINK-4213,PAYLOAD,2023-11-21 13:43:53,15.08858805,0.000253,53.2162,181.0368,84.0263,276.1017,0.00025395,3.758e-05,0.0,0 STARLINK-4213,1 52872U 22062AU  23325.57215221  .00003758  00000-0  25395-3 0  9996,2 52872  53.2162 181.0368 0002530  84.0263 276.1017 15.08858805 79384,6917.823,95.436,541.438,537.938,0.0
52872.0,STARLINK-4213,PAYLOAD,2023-11-21 20:05:26,15.08846975,0.0001717,53.216,179.8489,91.9821,268.1367,-9.8533e-05,-1.856e-05,0.0,0 STARLINK-4213,1 52872U 22062AU  23325.83711207 -.00001856  00000-0 -98533-4 0  9994,2 52872  53.2160 179.8489 0001717  91.9821 268.1367 15.08846975 79423,6917.859,95.437,540.912,538.536,0.0
52872.0,STARLINK-4213,PAYLOAD,2023-11-22 00:51:35,15.08848577,0.0001716,53.216,178.9568,94.2541,265.8647,5.1625e-05,5.34e-06,0.0,0 STARLINK-4213,1 52872U 22062AU  23326.03583116  .00000534  00000-0  51625-4 0  9994,2 52872  53.2160 178.9568 0001716  94.2541 265.8647 15.08848577 79453,6917.854,95.437,540.906,538.532,0.0
52872.0,STARLINK-4213,PAYLOAD,2023-11-22 19:56:13,15.08848422,0.0001738,53.2165,175.3888,95.8176,264.3014,0.00038049,5.774e-05,0.0,0 STARLINK-4213,1 52872U 22062AU  23326.83071083  .00005774  00000-0  38049-3 0  9992,2 52872  53.2165 175.3888 0001738  95.8176 264.3014 15.08848422 80069,6917.855,95.437,540.922,538.517,0.0
52872.0,STARLINK-4213,PAYLOAD,2023-11-22 21:31:36,15.08852492,0.0001726,53.2164,175.0915,91.5135,268.6054,0.00030412,4.557e-05,0.0,0 STARLINK-4213,1 52872U 22062AU  23326.89694920  .00004557  00000-0  30412-3 0  9993,2 52872  53.2164 175.0915 0001726  91.5135 268.6054 15.08852492 79589,6917.842,95.437,540.901,538.513,0.0
52872.0,STARLINK-4213,PAYLOAD,2023-11-23 13:25:28,15.08839024,0.0001767,53.2157,172.1187,81.8651,278.2541,0.00012449,1.694e-05,0.0,0 STARLINK-4213,1 52872U 22062AU  23327.55935500  .00001694  00000-0  12449-3 0  9998,2 52872  53.2157 172.1187 0001767  81.8651 278.2541 15.08839024 79685,6917.883,95.438,540.971,538.526,0.0
52872.0,STARLINK-4213,PAYLOAD,2023-11-23 19:47:01,15.08831351,0.0001601,53.2154,170.9263,88.2192,271.8984,-4.3757e-05,-9.84e-06,0.0,0 STARLINK-4213,1 52872U 22062AU  23327.82431868 -.00000984  00000-0 -43757-4 0  9996,2 52872  53.2154 170.9263 0001601  88.2192 271.8984 15.08831351 80217,6917.907,95.438,540.879,538.664,0.0
